OBJECT_NAME,OBJECT_ID,EPOCH,MEAN_MOTION,ECCENTRICITY,INCLINATION,RA_OF_ASC_NODE,ARG_OF_PERICENTER,MEAN_ANOMALY,EPHEMERIS_TYPE,CLASSIFICATION_TYPE,NORAD_CAT_ID,ELEMENT_SET_NO,REV_AT_EPOCH,BSTAR,MEAN_MOTION_DOT,MEAN_MOTION_DDOT
STARLINK-37521,2026-154D,2026-07-09T06:00:02.000160,16.04009197,.00008021,53.1606,323.3430,75.2437,342.6004,0,U,69822,999,171,-.21943774E-2,-.1453706E-1,.68609693E-3
STARLINK-37628,2026-154E,2026-07-09T06:00:02.000160,16.04137515,.00008046,53.1605,323.3403,75.4825,343.6601,0,U,69823,999,171,-.21788354E-2,-.145462E-1,.6879107E-3
STARLINK-37695,2026-154F,2026-07-09T06:00:02.000160,16.04258039,.00006007,53.1606,323.3376,60.0273,0.4425,0,U,69824,999,171,-.21482478E-2,-.1444795E-1,.68035555E-3
STARLINK-37690,2026-154G,2026-07-09T06:00:02.000160,16.04363713,.00006357,53.1604,323.3355,57.2202,4.3265,0,U,69825,999,171,-.21302222E-2,-.1441912E-1,.67869911E-3
STARLINK-37710,2026-154H,2026-07-09T06:00:02.000160,16.04495399,.0000665,53.1605,323.3328,56.5031,6.3495,0,U,69826,999,171,-.21206343E-2,-.1446867E-1,.68403461E-3
STARLINK-38031,2026-154J,2026-07-09T06:00:02.000160,16.04600773,.00005735,53.1606,323.3300,61.6784,2.4174,0,U,69827,999,171,-.21064514E-2,-.1446415E-1,.68448323E-3
STARLINK-38001,2026-154K,2026-07-09T06:00:02.000160,16.04703441,.00005852,53.1603,323.3278,59.7957,5.5058,0,U,69828,999,171,-.2087545E-2,-.1442469E-1,.68187719E-3
STARLINK-37622,2026-154L,2026-07-09T06:00:02.000160,16.04806760,.00006409,53.1603,323.3253,56.5991,9.9362,0,U,69829,999,171,-.20691133E-2,-.1438818E-1,.67953315E-3
STARLINK-37621,2026-154M,2026-07-09T06:00:02.000160,16.04902428,.00006649,53.1602,323.3232,54.4932,13.0654,0,U,69830,999,171,-.20499E-2,-.1433873E-1,.67600966E-3
STARLINK-37918,2026-154N,2026-07-09T06:00:02.000160,16.04995733,.00007052,53.1604,323.3210,53.4248,15.1477,0,U,69831,999,171,-.20374815E-2,-.1433345E-1,.67629287E-3
STARLINK-37887,2026-154P,2026-07-09T06:00:02.000160,16.05083962,.00005794,53.1603,323.3190,59.6914,9.8842,0,U,69832,999,171,-.2017156E-2,-.1426799E-1,.67133156E-3
STARLINK-37624,2026-154Q,2026-07-09T06:00:02.000160,16.05205524,.00006338,53.1601,323.3161,55.0573,16.0052,0,U,69833,999,171,-.20038711E-2,-.1427985E-1,.67331885E-3
STARLINK-37769,2026-154R,2026-07-09T06:00:02.000160,16.05317209,.00006366,53.1603,323.3132,54.0318,18.3889,0,U,69834,999,171,-.19896491E-2,-.1427604E-1,.67387594E-3
STARLINK-37247,2026-154S,2026-07-09T06:00:02.000160,16.05424231,.00006683,53.1601,323.3107,53.6846,20.0221,0,U,69835,999,181,-.19778884E-2,-.1428521E-1,.6755234E-3
STARLINK-37569,2026-154T,2026-07-09T06:00:02.000160,16.05516706,.00006666,53.1600,323.3087,53.5811,21.1030,0,U,69836,999,171,-.19660842E-2,-.1428104E-1,.67590056E-3
STARLINK-37587,2026-154U,2026-07-09T06:00:02.000160,16.05667144,.00009581,53.1601,323.3052,57.3526,18.9505,0,U,69837,999,168,-.200323E-2,-.1468123E-1,.71238359E-3
STARLINK-37590,2026-154V,2026-07-09T06:00:02.000160,16.05768595,.00008937,53.1601,323.3028,62.0338,15.4499,0,U,69838,999,155,-.19929259E-2,-.1469714E-1,.71466909E-3
STARLINK-37589,2026-154W,2026-07-09T06:00:02.000160,16.05879091,.00008786,53.1599,323.3001,61.3188,17.5166,0,U,69839,999,168,-.1979695E-2,-.146996E-1,.71583328E-3
STARLINK-37487,2026-154X,2026-07-09T06:00:02.000160,16.09626065,.00008896,53.1597,323.2468,56.0114,48.2371,0,U,69840,999,168,-.11256535E-2,-.1065299E-1,.41636222E-3
STARLINK-37433,2026-154Y,2026-07-09T06:00:02.000160,16.09873288,.00007644,53.1597,323.2417,52.4127,54.2827,0,U,69841,999,181,-.10737308E-2,-.103313E-1,.39508431E-3
STARLINK-37588,2026-154Z,2026-07-09T06:00:02.000160,16.10198456,.00004834,53.1596,323.2365,48.7647,60.4433,0,U,69842,999,171,-.10711326E-2,-.1052632E-1,.41036206E-3
STARLINK-37579,2026-154AA,2026-07-09T06:00:02.000160,16.10665751,.00006637,53.1596,323.2298,48.1856,64.0756,0,U,69843,999,171,-.10503383E-2,-.1064473E-1,.42124133E-3
STARLINK-37584,2026-154AB,2026-07-09T06:00:02.000160,16.10884885,.00005717,53.1597,323.2251,49.5131,64.9650,0,U,69844,999,171,-.10389016E-2,-.106828E-1,.42515684E-3
STARLINK-37606,2026-154AC,2026-07-09T06:00:02.000160,16.11162976,.00005495,53.1594,323.2200,20.9694,95.9685,0,U,69845,999,171,-.10013142E-2,-.1049167E-1,.41293114E-3
STARLINK-37603,2026-154AD,2026-07-09T06:00:02.000160,16.11591445,.00010578,53.1595,323.2141,44.4497,75.2104,0,U,69846,999,171,-.10354857E-2,-.1115801E-1,.46427964E-3
STARLINK-37595,2026-154AE,2026-07-09T06:00:02.000160,16.11768307,.00004376,53.1594,323.2089,50.8728,71.2024,0,U,69847,999,171,-.97951205E-3,-.1068675E-1,.43028238E-3
