STARLINK-37521          
1 69822U 26154D   26190.25002315 -.01453706  68610-3 -21944-2 0  9995
2 69822  53.1606 323.3430 0000802  75.2437 342.6004 16.04009197  1711
STARLINK-37628          
1 69823U 26154E   26190.25002315 -.01454620  68791-3 -21788-2 0  9998
2 69823  53.1605 323.3403 0000804  75.4825 343.6601 16.04137515  1716
STARLINK-37695          
1 69824U 26154F   26190.25002315 -.01444795  68036-3 -21482-2 0  9994
2 69824  53.1606 323.3376 0000600  60.0273   0.4425 16.04258039  1715
STARLINK-37690          
1 69825U 26154G   26190.25002315 -.01441912  67870-3 -21302-2 0  9999
2 69825  53.1604 323.3355 0000635  57.2202   4.3265 16.04363713  1710
STARLINK-37710          
1 69826U 26154H   26190.25002315 -.01446867  68403-3 -21206-2 0  9990
2 69826  53.1605 323.3328 0000665  56.5031   6.3495 16.04495399  1710
STARLINK-38031          
1 69827U 26154J   26190.25002315 -.01446415  68448-3 -21065-2 0  9992
2 69827  53.1606 323.3300 0000573  61.6784   2.4174 16.04600773  1717
STARLINK-38001          
1 69828U 26154K   26190.25002315 -.01442469  68188-3 -20875-2 0  9997
2 69828  53.1603 323.3278 0000585  59.7957   5.5058 16.04703441  1713
STARLINK-37622          
1 69829U 26154L   26190.25002315 -.01438818  67953-3 -20691-2 0  9996
2 69829  53.1603 323.3253 0000640  56.5991   9.9362 16.04806760  1716
STARLINK-37621          
1 69830U 26154M   26190.25002315 -.01433873  67601-3 -20499-2 0  9990
2 69830  53.1602 323.3232 0000664  54.4932  13.0654 16.04902428  1710
STARLINK-37918          
1 69831U 26154N   26190.25002315 -.01433345  67629-3 -20375-2 0  9998
2 69831  53.1604 323.3210 0000705  53.4248  15.1477 16.04995733  1711
STARLINK-37887          
1 69832U 26154P   26190.25002315 -.01426799  67133-3 -20172-2 0  9999
2 69832  53.1603 323.3190 0000579  59.6914   9.8842 16.05083962  1714
STARLINK-37624          
1 69833U 26154Q   26190.25002315 -.01427985  67332-3 -20039-2 0  9991
2 69833  53.1601 323.3161 0000633  55.0573  16.0052 16.05205524  1716
STARLINK-37769          
1 69834U 26154R   26190.25002315 -.01427604  67388-3 -19896-2 0  9990
2 69834  53.1603 323.3132 0000636  54.0318  18.3889 16.05317209  1713
STARLINK-37247          
1 69835U 26154S   26190.25002315 -.01428521  67552-3 -19779-2 0  9993
2 69835  53.1601 323.3107 0000668  53.6846  20.0221 16.05424231  1815
STARLINK-37569          
1 69836U 26154T   26190.25002315 -.01428104  67590-3 -19661-2 0  9993
2 69836  53.1600 323.3087 0000666  53.5811  21.1030 16.05516706  1719
STARLINK-37587          
1 69837U 26154U   26190.25002315 -.01468123  71238-3 -20032-2 0  9997
2 69837  53.1601 323.3052 0000958  57.3526  18.9505 16.05667144  1682
STARLINK-37590          
1 69838U 26154V   26190.25002315 -.01469714  71467-3 -19929-2 0  9992
2 69838  53.1601 323.3028 0000893  62.0338  15.4499 16.05768595  1550
STARLINK-37589          
1 69839U 26154W   26190.25002315 -.01469960  71583-3 -19797-2 0  9998
2 69839  53.1599 323.3001 0000878  61.3188  17.5166 16.05879091  1688
STARLINK-37487          
1 69840U 26154X   26190.25002315 -.01065299  41636-3 -11257-2 0  9996
2 69840  53.1597 323.2468 0000889  56.0114  48.2371 16.09626065  1680
STARLINK-37433          
1 69841U 26154Y   26190.25002315 -.01033130  39508-3 -10737-2 0  9993
2 69841  53.1597 323.2417 0000764  52.4127  54.2827 16.09873288  1810
STARLINK-37588          
1 69842U 26154Z   26190.25002315 -.01052632  41036-3 -10711-2 0  9993
2 69842  53.1596 323.2365 0000483  48.7647  60.4433 16.10198456  1715
STARLINK-37579          
1 69843U 26154AA  26190.25002315 -.01064473  42124-3 -10503-2 0  9998
2 69843  53.1596 323.2298 0000663  48.1856  64.0756 16.10665751  1712
STARLINK-37584          
1 69844U 26154AB  26190.25002315 -.01068280  42516-3 -10389-2 0  9996
2 69844  53.1597 323.2251 0000571  49.5131  64.9650 16.10884885  1715
STARLINK-37606          
1 69845U 26154AC  26190.25002315 -.01049167  41293-3 -10013-2 0  9995
2 69845  53.1594 323.2200 0000549  20.9694  95.9685 16.11162976  1712
STARLINK-37603          
1 69846U 26154AD  26190.25002315 -.01115801  46428-3 -10355-2 0  9999
2 69846  53.1595 323.2141 0001057  44.4497  75.2104 16.11591445  1719
STARLINK-37595          
1 69847U 26154AE  26190.25002315 -.01068675  43028-3 -97951-3 0  9997
2 69847  53.1594 323.2089 0000437  50.8728  71.2024 16.11768307  1719
